TRANSPORTER-12 OBJECT AZ
1 62656U 25009AZ  26068.71026235  .00016057  00000+0  54903-3 0  9991
2 62656  97.3981 151.9913 0000987  45.3581 314.7740 15.30349724 63792
STARLINK-35903          
1 67168U 25303F   26068.40416358  .00024688  00000+0  90352-3 0  9993
2 67168  43.0024 312.1475 0000661 283.1485  76.9293 15.27585974 12697
