[{"OBJECT_NAME":"TRANSPORTER-12 OBJECT AZ","OBJECT_ID":"2025-009AZ","EPOCH":"2026-03-09T17:02:46.667040","MEAN_MOTION":15.30349724,"ECCENTRICITY":9.87e-5,"INCLINATION":97.3981,"RA_OF_ASC_NODE":151.9913,"ARG_OF_PERICENTER":45.3581,"MEAN_ANOMALY":314.774,"EPHEMERIS_TYPE":0,"CLASSIFICATION_TYPE":"U","NORAD_CAT_ID":62656,"ELEMENT_SET_NO":999,"REV_AT_EPOCH":6379,"BSTAR":0.00054902545,"MEAN_MOTION_DOT":0.00016057,"MEAN_MOTION_DDOT":0},{"OBJECT_NAME":"STARLINK-35903","OBJECT_ID":"2025-303F","EPOCH":"2026-03-09T09:41:59.733312","MEAN_MOTION":15.27585974,"ECCENTRICITY":6.613e-5,"INCLINATION":43.0024,"RA_OF_ASC_NODE":312.1475,"ARG_OF_PERICENTER":283.1485,"MEAN_ANOMALY":76.9293,"EPHEMERIS_TYPE":0,"CLASSIFICATION_TYPE":"U","NORAD_CAT_ID":67168,"ELEMENT_SET_NO":999,"REV_AT_EPOCH":1269,"BSTAR":0.00090351764,"MEAN_MOTION_DOT":0.00024688,"MEAN_MOTION_DDOT":0}]
